CCSDS_OMM_VERS = 2.0
CREATION_DATE  = 
ORIGINATOR     = 

OBJECT_NAME    = STARLINK-37220
OBJECT_ID      = 2026-063U
CENTER_NAME    = EARTH
REF_FRAME      = TEME
TIME_SYSTEM    = UTC
MEAN_ELEMENT_THEORY = SGP/SGP4

EPOCH          = 2026-04-02T18:00:01.999296
MEAN_MOTION    = 16.00790582
ECCENTRICITY   = .0002091
INCLINATION    = 97.2815
RA_OF_ASC_NODE = 233.5577
ARG_OF_PERICENTER = 66.0397
MEAN_ANOMALY   = 120.4043

EPHEMERIS_TYPE = 0
CLASSIFICATION_TYPE = U
NORAD_CAT_ID   = 68398
ELEMENT_SET_NO = 999
REV_AT_EPOCH   = 232
BSTAR          = -.43589E-2
MEAN_MOTION_DOT = -.228389E-1
MEAN_MOTION_DDOT = .15546E-2

CCSDS_OMM_VERS = 2.0
CREATION_DATE  = 
ORIGINATOR     = 

OBJECT_NAME    = STARLINK-37187
OBJECT_ID      = 2026-063V
CENTER_NAME    = EARTH
REF_FRAME      = TEME
TIME_SYSTEM    = UTC
MEAN_ELEMENT_THEORY = SGP/SGP4

EPOCH          = 2026-04-02T18:00:01.999296
MEAN_MOTION    = 16.00392506
ECCENTRICITY   = .0001626
INCLINATION    = 97.2813
RA_OF_ASC_NODE = 233.5566
ARG_OF_PERICENTER = 66.9644
MEAN_ANOMALY   = 117.1108

EPHEMERIS_TYPE = 0
CLASSIFICATION_TYPE = U
NORAD_CAT_ID   = 68399
ELEMENT_SET_NO = 999
REV_AT_EPOCH   = 232
BSTAR          = -.35747E-2
MEAN_MOTION_DOT = -.1834573E-1
MEAN_MOTION_DDOT = .10161E-2

CCSDS_OMM_VERS = 2.0
CREATION_DATE  = 
ORIGINATOR     = 

OBJECT_NAME    = STARLINK-36235
OBJECT_ID      = 2026-063W
CENTER_NAME    = EARTH
REF_FRAME      = TEME
TIME_SYSTEM    = UTC
MEAN_ELEMENT_THEORY = SGP/SGP4

EPOCH          = 2026-04-02T18:00:01.999296
MEAN_MOTION    = 16.00671292
ECCENTRICITY   = .0001536
INCLINATION    = 97.2810
RA_OF_ASC_NODE = 233.5586
ARG_OF_PERICENTER = 80.5141
MEAN_ANOMALY   = 108.5827

EPHEMERIS_TYPE = 0
CLASSIFICATION_TYPE = U
NORAD_CAT_ID   = 68400
ELEMENT_SET_NO = 999
REV_AT_EPOCH   = 232
BSTAR          = -.35611E-2
MEAN_MOTION_DOT = -.1856481E-1
MEAN_MOTION_DDOT = .10425E-2

CCSDS_OMM_VERS = 2.0
CREATION_DATE  = 
ORIGINATOR     = 

OBJECT_NAME    = STARLINK-37175
OBJECT_ID      = 2026-063X
CENTER_NAME    = EARTH
REF_FRAME      = TEME
TIME_SYSTEM    = UTC
MEAN_ELEMENT_THEORY = SGP/SGP4

EPOCH          = 2026-04-02T18:00:01.999296
MEAN_MOTION    = 16.00803270
ECCENTRICITY   = .0001605
INCLINATION    = 97.2812
RA_OF_ASC_NODE = 233.5601
ARG_OF_PERICENTER = 70.4024
MEAN_ANOMALY   = 121.2648

EPHEMERIS_TYPE = 0
CLASSIFICATION_TYPE = U
NORAD_CAT_ID   = 68401
ELEMENT_SET_NO = 999
REV_AT_EPOCH   = 232
BSTAR          = -.3538E-2
MEAN_MOTION_DOT = -.1858405E-1
MEAN_MOTION_DDOT = .10462E-2

CCSDS_OMM_VERS = 2.0
CREATION_DATE  = 
ORIGINATOR     = 

OBJECT_NAME    = STARLINK-36360
OBJECT_ID      = 2026-063Y
CENTER_NAME    = EARTH
REF_FRAME      = TEME
TIME_SYSTEM    = UTC
MEAN_ELEMENT_THEORY = SGP/SGP4

EPOCH          = 2026-04-02T18:00:01.999296
MEAN_MOTION    = 16.00951512
ECCENTRICITY   = .0001494
INCLINATION    = 97.2811
RA_OF_ASC_NODE = 233.5611
ARG_OF_PERICENTER = 76.7215
MEAN_ANOMALY   = 117.4227

EPHEMERIS_TYPE = 0
CLASSIFICATION_TYPE = U
NORAD_CAT_ID   = 68402
ELEMENT_SET_NO = 999
REV_AT_EPOCH   = 232
BSTAR          = -.35609E-2
MEAN_MOTION_DOT = -.1885974E-1
MEAN_MOTION_DDOT = .10776E-2

CCSDS_OMM_VERS = 2.0
CREATION_DATE  = 
ORIGINATOR     = 

OBJECT_NAME    = STARLINK-37218
OBJECT_ID      = 2026-063Z
CENTER_NAME    = EARTH
REF_FRAME      = TEME
TIME_SYSTEM    = UTC
MEAN_ELEMENT_THEORY = SGP/SGP4

EPOCH          = 2026-04-02T18:00:01.999296
MEAN_MOTION    = 16.01196804
ECCENTRICITY   = .0001616
INCLINATION    = 97.2814
RA_OF_ASC_NODE = 233.5637
ARG_OF_PERICENTER = 71.1878
MEAN_ANOMALY   = 127.3880

EPHEMERIS_TYPE = 0
CLASSIFICATION_TYPE = U
NORAD_CAT_ID   = 68403
ELEMENT_SET_NO = 999
REV_AT_EPOCH   = 232
BSTAR          = -.34726E-2
MEAN_MOTION_DOT = -.1865503E-1
MEAN_MOTION_DDOT = .10587E-2

CCSDS_OMM_VERS = 2.0
CREATION_DATE  = 
ORIGINATOR     = 

OBJECT_NAME    = STARLINK-37188
OBJECT_ID      = 2026-063AA
CENTER_NAME    = EARTH
REF_FRAME      = TEME
TIME_SYSTEM    = UTC
MEAN_ELEMENT_THEORY = SGP/SGP4

EPOCH          = 2026-04-02T18:00:01.999296
MEAN_MOTION    = 16.01065014
ECCENTRICITY   = .00016
INCLINATION    = 97.2811
RA_OF_ASC_NODE = 233.5623
ARG_OF_PERICENTER = 68.4936
MEAN_ANOMALY   = 127.6824

EPHEMERIS_TYPE = 0
CLASSIFICATION_TYPE = U
NORAD_CAT_ID   = 68404
ELEMENT_SET_NO = 999
REV_AT_EPOCH   = 232
BSTAR          = -.34952E-2
MEAN_MOTION_DOT = -.1863513E-1
MEAN_MOTION_DDOT = .10549E-2

CCSDS_OMM_VERS = 2.0
CREATION_DATE  = 
ORIGINATOR     = 

OBJECT_NAME    = SHIYAN-33
OBJECT_ID      = 2026-064A
CENTER_NAME    = EARTH
REF_FRAME      = TEME
TIME_SYSTEM    = UTC
MEAN_ELEMENT_THEORY = SGP/SGP4

EPOCH          = 2026-04-02T17:19:19.790976
MEAN_MOTION    = 15.23194759
ECCENTRICITY   = .0013547
INCLINATION    = 97.4658
RA_OF_ASC_NODE = 168.6373
ARG_OF_PERICENTER = 205.6558
MEAN_ANOMALY   = 154.4008

EPHEMERIS_TYPE = 0
CLASSIFICATION_TYPE = U
NORAD_CAT_ID   = 68405
ELEMENT_SET_NO = 999
REV_AT_EPOCH   = 100
BSTAR          = .31927E-3
MEAN_MOTION_DOT = .7499E-4
MEAN_MOTION_DDOT = 0

CCSDS_OMM_VERS = 2.0
CREATION_DATE  = 
ORIGINATOR     = 

OBJECT_NAME    = LPNTSAT-001 (IOD-1)
OBJECT_ID      = 2026-065A
CENTER_NAME    = EARTH
REF_FRAME      = TEME
TIME_SYSTEM    = UTC
MEAN_ELEMENT_THEORY = SGP/SGP4

EPOCH          = 2026-04-01T04:04:57.158400
MEAN_MOTION    = 15.18233471
ECCENTRICITY   = .0015408
INCLINATION    = 97.4137
RA_OF_ASC_NODE = 333.2788
ARG_OF_PERICENTER = 273.4606
MEAN_ANOMALY   = 86.4866

EPHEMERIS_TYPE = 0
CLASSIFICATION_TYPE = U
NORAD_CAT_ID   = 68408
ELEMENT_SET_NO = 999
REV_AT_EPOCH   = 57
BSTAR          = .23469E-3
MEAN_MOTION_DOT = .475E-4
MEAN_MOTION_DDOT = 0

CCSDS_OMM_VERS = 2.0
CREATION_DATE  = 
ORIGINATOR     = 

OBJECT_NAME    = LPNTSAT-002 (IOD-2)
OBJECT_ID      = 2026-065B
CENTER_NAME    = EARTH
REF_FRAME      = TEME
TIME_SYSTEM    = UTC
MEAN_ELEMENT_THEORY = SGP/SGP4

EPOCH          = 2026-03-30T22:01:49.710144
MEAN_MOTION    = 15.18186279
ECCENTRICITY   = .00125114
INCLINATION    = 97.4122
RA_OF_ASC_NODE = 332.0512
ARG_OF_PERICENTER = 274.1697
MEAN_ANOMALY   = 85.8107

EPHEMERIS_TYPE = 0
CLASSIFICATION_TYPE = U
NORAD_CAT_ID   = 68409
ELEMENT_SET_NO = 999
REV_AT_EPOCH   = 36
BSTAR          = .84452084E-4
MEAN_MOTION_DOT = .1661E-4
MEAN_MOTION_DDOT = 0

CCSDS_OMM_VERS = 2.0
CREATION_DATE  = 
ORIGINATOR     = 

OBJECT_NAME    = ELECTRON R/B
OBJECT_ID      = 2026-065C
CENTER_NAME    = EARTH
REF_FRAME      = TEME
TIME_SYSTEM    = UTC
MEAN_ELEMENT_THEORY = SGP/SGP4

EPOCH          = 2026-03-29T17:50:42.810720
MEAN_MOTION    = 15.83047135
ECCENTRICITY   = .02280831
INCLINATION    = 97.3942
RA_OF_ASC_NODE = 331.0573
ARG_OF_PERICENTER = 205.9229
MEAN_ANOMALY   = 153.0475

EPHEMERIS_TYPE = 0
CLASSIFICATION_TYPE = U
NORAD_CAT_ID   = 68410
ELEMENT_SET_NO = 999
REV_AT_EPOCH   = 15
BSTAR          = .25022275E-3
MEAN_MOTION_DOT = .479178E-2
MEAN_MOTION_DDOT = .2264235E-5

CCSDS_OMM_VERS = 2.0
CREATION_DATE  = 
ORIGINATOR     = 

OBJECT_NAME    = ELECTRON KICK STAGE R/B
OBJECT_ID      = 2026-065D
CENTER_NAME    = EARTH
REF_FRAME      = TEME
TIME_SYSTEM    = UTC
MEAN_ELEMENT_THEORY = SGP/SGP4

EPOCH          = 2026-03-30T16:54:54.803808
MEAN_MOTION    = 15.75328689
ECCENTRICITY   = .02045106
INCLINATION    = 97.4169
RA_OF_ASC_NODE = 332.0388
ARG_OF_PERICENTER = 25.2779
MEAN_ANOMALY   = 335.8323

EPHEMERIS_TYPE = 0
CLASSIFICATION_TYPE = U
NORAD_CAT_ID   = 68411
ELEMENT_SET_NO = 999
REV_AT_EPOCH   = 37
BSTAR          = .32519468E-3
MEAN_MOTION_DOT = .204615E-2
MEAN_MOTION_DDOT = .215409E-5

